[{"OBJECT_NAME":"STARLINK-30231","OBJECT_ID":"2023-113V","EPOCH":"2026-03-09T22:00:01.999584","MEAN_MOTION":15.26763593,"ECCENTRICITY":0.00017784,"INCLINATION":43.0012,"RA_OF_ASC_NODE":14.4315,"ARG_OF_PERICENTER":266.9098,"MEAN_ANOMALY":104.5357,"EPHEMERIS_TYPE":0,"CLASSIFICATION_TYPE":"U","NORAD_CAT_ID":57514,"ELEMENT_SET_NO":999,"REV_AT_EPOCH":577,"BSTAR":0.0008895568,"MEAN_MOTION_DOT":0.00023695,"MEAN_MOTION_DDOT":0},{"OBJECT_NAME":"TIANHUI 7","OBJECT_ID":"2025-314A","EPOCH":"2026-02-21T16:04:56.557920","MEAN_MOTION":15.26178925,"ECCENTRICITY":0.00016912,"INCLINATION":97.4117,"RA_OF_ASC_NODE":129.4508,"ARG_OF_PERICENTER":83.9579,"MEAN_ANOMALY":276.1853,"EPHEMERIS_TYPE":0,"CLASSIFICATION_TYPE":"U","NORAD_CAT_ID":67300,"ELEMENT_SET_NO":999,"REV_AT_EPOCH":817,"BSTAR":0.00025701477,"MEAN_MOTION_DOT":6.572e-5,"MEAN_MOTION_DDOT":0}]
